SL-16 R/B               
1 23088U 94023B   17345.89547191  .00000238  00000-0  14829-3 0  9993
2 23088  71.0009 269.0690 0004373 220.0382 140.0419 14.14663628220404
